SAC-D
1 37673U 11024A   13353.46827569 +.00000000 +00000+0 +13846-4 6  9526
2 37673  98.0114 358.2527 0001647  77.0057 147.4329 14.72312960135326
